{
  "type": "FeatureCollection",
  "features": [
    {
      "type": "Feature",
      "properties": {
        "norad_id": 40069,
        "name": "METEOR-M 2",
        "group": "weather",
        "lat": -24.516740786550073,
        "lon": -39.61849570203232,
        "alt_km": 826.6802388602264,
        "timestamp": "2025-12-04T13:52:00.091376+00:00",
        "meta_object_name": "METEOR-M 2",
        "meta_object_id": "2014-037A",
        "meta_epoch": "2025-12-04T07:13:31.247904",
        "meta_mean_motion": 14.2138158,
        "meta_eccentricity": 0.00047169,
        "meta_inclination": 98.4894,
        "meta_ra_of_asc_node": 316.2095,
        "meta_arg_of_pericenter": 237.7134,
        "meta_mean_anomaly": 122.3587,
        "meta_ephemeris_type": 0,
        "meta_classification_type": "U",
        "meta_norad_cat_id": 40069,
        "meta_element_set_no": 999,
        "meta_rev_at_epoch": 59163,
        "meta_bstar": 0.00015782709,
        "meta_mean_motion_dot": 3.03e-06,
        "meta_mean_motion_ddot": 0,
        "tle_line1": "1 40069U 14037A   25338.30105611  .00000303  00000+0  15783-3 0  9994",
        "tle_line2": "2 40069  98.4894 316.2095 0004716 237.7134 122.3587 14.21381580591639"
      },
      "geometry": {
        "type": "Point",
        "coordinates": [
          -39.61849570203232,
          -24.516740786550073
        ]
      }
    },
    {
      "type": "Feature",
      "properties": {
        "norad_id": 40267,
        "name": "HIMAWARI-8",
        "group": "weather",
        "lat": 0.019665276177356826,
        "lon": 62.31676503195483,
        "alt_km": 35790.53738297488,
        "timestamp": "2025-12-04T13:52:00.091387+00:00",
        "meta_object_name": "HIMAWARI-8",
        "meta_object_id": "2014-060A",
        "meta_epoch": "2025-12-04T07:32:51.683712",
        "meta_mean_motion": 1.00270577,
        "meta_eccentricity": 0.00013009,
        "meta_inclination": 0.0461,
        "meta_ra_of_asc_node": 139.0995,
        "meta_arg_of_pericenter": 145.3702,
        "meta_mean_anomaly": 42.8147,
        "meta_ephemeris_type": 0,
        "meta_classification_type": "U",
        "meta_norad_cat_id": 40267,
        "meta_element_set_no": 999,
        "meta_rev_at_epoch": 4080,
        "meta_bstar": 0,
        "meta_mean_motion_dot": -2.6e-06,
        "meta_mean_motion_ddot": 0,
        "tle_line1": "1 40267U 14060A   25338.31448708 -.00000260  00000+0  00000+0 0  9993",
        "tle_line2": "2 40267   0.0461 139.0995 0001300 145.3702  42.8147  1.00270577 40801"
      },
      "geometry": {
        "type": "Point",
        "coordinates": [
          62.31676503195483,
          0.019665276177356826
        ]
      }
    },
    {
      "type": "Feature",
      "properties": {
        "norad_id": 40367,
        "name": "FENGYUN 2G",
        "group": "weather",
        "lat": -4.132376583204189,
        "lon": 21.479379871697265,
        "alt_km": 35792.94272731686,
        "timestamp": "2025-12-04T13:52:00.091399+00:00",
        "meta_object_name": "FENGYUN 2G",
        "meta_object_id": "2014-090A",
        "meta_epoch": "2025-12-04T07:21:07.807968",
        "meta_mean_motion": 1.00267095,
        "meta_eccentricity": 0.00031226,
        "meta_inclination": 5.1453,
        "meta_ra_of_asc_node": 75.1954,
        "meta_arg_of_pericenter": 194.2721,
        "meta_mean_anomaly": 13.9009,
        "meta_ephemeris_type": 0,
        "meta_classification_type": "U",
        "meta_norad_cat_id": 40367,
        "meta_element_set_no": 999,
        "meta_rev_at_epoch": 4004,
        "meta_bstar": 0,
        "meta_mean_motion_dot": -2.89e-06,
        "meta_mean_motion_ddot": 0,
        "tle_line1": "1 40367U 14090A   25338.30634037 -.00000289  00000+0  00000+0 0  9999",
        "tle_line2": "2 40367   5.1453  75.1954 0003122 194.2721  13.9009  1.00267095 40045"
      },
      "geometry": {
        "type": "Point",
        "coordinates": [
          21.479379871697265,
          -4.132376583204189
        ]
      }
    },
    {
      "type": "Feature",
      "properties": {
        "norad_id": 40732,
        "name": "METEOSAT-11 (MSG-4)",
        "group": "weather",
        "lat": -1.7270747484896276,
        "lon": -68.94745797712385,
        "alt_km": 35789.06532194694,
        "timestamp": "2025-12-04T13:52:00.091411+00:00",
        "meta_object_name": "METEOSAT-11 (MSG-4)",
        "meta_object_id": "2015-034A",
        "meta_epoch": "2025-12-04T05:12:34.157664",
        "meta_mean_motion": 1.00264754,
        "meta_eccentricity": 0.00010194,
        "meta_inclination": 2.7141,
        "meta_ra_of_asc_node": 72.0246,
        "meta_arg_of_pericenter": 117.833,
        "meta_mean_anomaly": 331.0261,
        "meta_ephemeris_type": 0,
        "meta_classification_type": "U",
        "meta_norad_cat_id": 40732,
        "meta_element_set_no": 999,
        "meta_rev_at_epoch": 526,
        "meta_bstar": 0,
        "meta_mean_motion_dot": 7.6e-07,
        "meta_mean_motion_ddot": 0,
        "tle_line1": "1 40732U 15034A   25338.21706201  .00000076  00000+0  00000+0 0  9990",
        "tle_line2": "2 40732   2.7141  72.0246 0001019 117.8330 331.0261  1.00264754  5266"
      },
      "geometry": {
        "type": "Point",
        "coordinates": [
          -68.94745797712385,
          -1.7270747484896276
        ]
      }
    },
    {
      "type": "Feature",
      "properties": {
        "norad_id": 41105,
        "name": "ELEKTRO-L 2",
        "group": "weather",
        "lat": -1.542621904167256,
        "lon": -92.97187787995315,
        "alt_km": 35769.87531939386,
        "timestamp": "2025-12-04T13:52:00.091423+00:00",
        "meta_object_name": "ELEKTRO-L 2",
        "meta_object_id": "2015-074A",
        "meta_epoch": "2025-12-04T01:40:17.137056",
        "meta_mean_motion": 1.00269777,
        "meta_eccentricity": 0.00040203,
        "meta_inclination": 6.2023,
        "meta_ra_of_asc_node": 72.9293,
        "meta_arg_of_pericenter": 197.7104,
        "meta_mean_anomaly": 173.0548,
        "meta_ephemeris_type": 0,
        "meta_classification_type": "U",
        "meta_norad_cat_id": 41105,
        "meta_element_set_no": 999,
        "meta_rev_at_epoch": 3655,
        "meta_bstar": 0,
        "meta_mean_motion_dot": -1.05e-06,
        "meta_mean_motion_ddot": 0,
        "tle_line1": "1 41105U 15074A   25338.06964279 -.00000105  00000+0  00000+0 0  9997",
        "tle_line2": "2 41105   6.2023  72.9293 0004020 197.7104 173.0548  1.00269777 36559"
      },
      "geometry": {
        "type": "Point",
        "coordinates": [
          -92.97187787995315,
          -1.542621904167256
        ]
      }
    },
    {
      "type": "Feature",
      "properties": {
        "norad_id": 41752,
        "name": "INSAT-3DR",
        "group": "weather",
        "lat": -0.04989901641575842,
        "lon": -4.180426902592264,
        "alt_km": 35783.22750849977,
        "timestamp": "2025-12-04T13:52:00.091435+00:00",
        "meta_object_name": "INSAT-3DR",
        "meta_object_id": "2016-054A",
        "meta_epoch": "2025-12-04T03:48:19.728288",
        "meta_mean_motion": 1.00269596,
        "meta_eccentricity": 0.00144991,
        "meta_inclination": 0.07,
        "meta_ra_of_asc_node": 88.788,
        "meta_arg_of_pericenter": 180.3635,
        "meta_mean_anomaly": 295.1942,
        "meta_ephemeris_type": 0,
        "meta_classification_type": "U",
        "meta_norad_cat_id": 41752,
        "meta_element_set_no": 999,
        "meta_rev_at_epoch": 3386,
        "meta_bstar": 0,
        "meta_mean_motion_dot": -6.1e-07,
        "meta_mean_motion_ddot": 0,
        "tle_line1": "1 41752U 16054A   25338.15856167 -.00000061  00000+0  00000+0 0  9991",
        "tle_line2": "2 41752   0.0700  88.7880 0014499 180.3635 295.1942  1.00269596 33860"
      },
      "geometry": {
        "type": "Point",
        "coordinates": [
          -4.180426902592264,
          -0.04989901641575842
        ]
      }
    },
    {
      "type": "Feature",
      "properties": {
        "norad_id": 41836,
        "name": "HIMAWARI-9",
        "group": "weather",
        "lat": 0.041799801228801954,
        "lon": 62.38581271077315,
        "alt_km": 35792.48055427425,
        "timestamp": "2025-12-04T13:52:00.091447+00:00",
        "meta_object_name": "HIMAWARI-9",
        "meta_object_id": "2016-064A",
        "meta_epoch": "2025-12-04T07:32:51.683712",
        "meta_mean_motion": 1.00266944,
        "meta_eccentricity": 0.00023577,
        "meta_inclination": 0.0196,
        "meta_ra_of_asc_node": 354.583,
        "meta_arg_of_pericenter": 307.7128,
        "meta_mean_anomaly": 25.0479,
        "meta_ephemeris_type": 0,
        "meta_classification_type": "U",
        "meta_norad_cat_id": 41836,
        "meta_element_set_no": 999,
        "meta_rev_at_epoch": 3325,
        "meta_bstar": 0,
        "meta_mean_motion_dot": 0,
        "meta_mean_motion_ddot": 0,
        "tle_line1": "1 41836U 16064A   25338.31448708  .00000000  00000+0  00000+0 0  9993",
        "tle_line2": "2 41836   0.0196 354.5830 0002357 307.7128  25.0479  1.00266944 33255"
      },
      "geometry": {
        "type": "Point",
        "coordinates": [
          62.38581271077315,
          0.041799801228801954
        ]
      }
    }
  ]
}